{"type": "FeatureCollection", "features": [ {"type": "Feature", "properties": {"norad_id": 28659, "name": "DIRECTV 8", "group": "intelsat", "lat": -0.0428965123912691, "lon": -49.48069731046266, "alt_km": 35775.97633267547, "timestamp": "2025-12-20T22:39:10.313008+00:00", "meta": {"OBJECT_NAME": "DIRECTV 8", "OBJECT_ID": "2005-019A", "EPOCH": "2025-12-20T10:08:09.379392", "MEAN_MOTION": 1.00270176, "ECCENTRICITY": 0.00028828, "INCLINATION": 0.0251, "RA_OF_ASC_NODE": 9.5951, "ARG_OF_PERICENTER": 270.6825, "MEAN_ANOMALY": 201.9689, "EPHEMERIS_TYPE": 0, "CLASSIFICATION_TYPE": "U", "NORAD_CAT_ID": 28659, "ELEMENT_SET_NO": 999, "REV_AT_EPOCH": 7528, "BSTAR": 0, "MEAN_MOTION_DOT": 0, "MEAN_MOTION_DDOT": 0}, "tle": {"line1": "1 28659U 05019A   25354.42233078  .00000000  00000+0  00000+0 0  9991", "line2": "2 28659   0.0251   9.5951 0002882 270.6825 201.9689  1.00270176 75280"}}, "geometry": {"type": "Point", "coordinates": [-49.48069731046266, -0.0428965123912691]}}, {"type": "Feature", "properties": {"norad_id": 28702, "name": "GALAXY 28 (G-28)", "group": "intelsat", "lat": -2.805547905534643, "lon": -19.10722442292962, "alt_km": 35781.578384162174, "timestamp": "2025-12-20T22:39:10.313018+00:00", "meta": {"OBJECT_NAME": "GALAXY 28 (G-28)", "OBJECT_ID": "2005-022A", "EPOCH": "2025-12-20T00:49:30.482112", "MEAN_MOTION": 1.00271047, "ECCENTRICITY": 0.00029384, "INCLINATION": 2.8382, "RA_OF_ASC_NODE": 81.1982, "ARG_OF_PERICENTER": 194.0723, "MEAN_ANOMALY": 97.2981, "EPHEMERIS_TYPE": 0, "CLASSIFICATION_TYPE": "U", "NORAD_CAT_ID": 28702, "ELEMENT_SET_NO": 999, "REV_AT_EPOCH": 5017, "BSTAR": 0, "MEAN_MOTION_DOT": -1.65e-06, "MEAN_MOTION_DDOT": 0}, "tle": {"line1": "1 28702U 05022A   25354.03438058 -.00000165  00000+0  00000+0 0  9999", "line2": "2 28702   2.8382  81.1982 0002938 194.0723  97.2981  1.00271047 50172"}}, "geometry": {"type": "Point", "coordinates": [-19.10722442292962, -2.805547905534643]}}, {"type": "Feature", "properties": {"norad_id": 29236, "name": "GALAXY 16 (G-16)", "group": "intelsat", "lat": 0.003464984210800209, "lon": -29.42622690198415, "alt_km": 35781.15236560479, "timestamp": "2025-12-20T22:39:10.313029+00:00", "meta": {"OBJECT_NAME": "GALAXY 16 (G-16)", "OBJECT_ID": "2006-023A", "EPOCH": "2025-12-20T12:09:57.868128", "MEAN_MOTION": 1.00271154, "ECCENTRICITY": 0.0002466, "INCLINATION": 0.0202, "RA_OF_ASC_NODE": 181.2175, "ARG_OF_PERICENTER": 88.6621, "MEAN_ANOMALY": 262.9469, "EPHEMERIS_TYPE": 0, "CLASSIFICATION_TYPE": "U", "NORAD_CAT_ID": 29236, "ELEMENT_SET_NO": 999, "REV_AT_EPOCH": 7118, "BSTAR": 0, "MEAN_MOTION_DOT": -1.03e-06, "MEAN_MOTION_DDOT": 0}, "tle": {"line1": "1 29236U 06023A   25354.50691977 -.00000103  00000+0  00000+0 0  9999", "line2": "2 29236   0.0202 181.2175 0002466  88.6621 262.9469  1.00271154 71188"}}, "geometry": {"type": "Point", "coordinates": [-29.42622690198415, 0.003464984210800209]}}, {"type": "Feature", "properties": {"norad_id": 29494, "name": "DIRECTV 9S", "group": "intelsat", "lat": -1.7950783722647423, "lon": -31.639655505217803, "alt_km": 35779.19405985383, "timestamp": "2025-12-20T22:39:10.313039+00:00", "meta": {"OBJECT_NAME": "DIRECTV 9S", "OBJECT_ID": "2006-043A", "EPOCH": "2025-12-20T11:02:13.713216", "MEAN_MOTION": 1.00271636, "ECCENTRICITY": 0.00028256, "INCLINATION": 1.9589, "RA_OF_ASC_NODE": 83.1325, "ARG_OF_PERICENTER": 192.0935, "MEAN_ANOMALY": 238.4139, "EPHEMERIS_TYPE": 0, "CLASSIFICATION_TYPE": "U", "NORAD_CAT_ID": 29494, "ELEMENT_SET_NO": 999, "REV_AT_EPOCH": 4959, "BSTAR": 0, "MEAN_MOTION_DOT": -9.1e-07, "MEAN_MOTION_DDOT": 0}, "tle": {"line1": "1 29494U 06043A   25354.45988094 -.00000091  00000+0  00000+0 0  9996", "line2": "2 29494   1.9589  83.1325 0002825 192.0935 238.4139  1.00271636 49593"}}, "geometry": {"type": "Point", "coordinates": [-31.639655505217803, -1.7950783722647423]}}, {"type": "Feature", "properties": {"norad_id": 31307, "name": "GALAXY 17 (G-17)", "group": "intelsat", "lat": -2.5062220718747086, "lon": -15.355263427296496, "alt_km": 35787.38584401291, "timestamp": "2025-12-20T22:39:10.313050+00:00", "meta": {"OBJECT_NAME": "GALAXY 17 (G-17)", "OBJECT_ID": "2007-016B", "EPOCH": "2025-12-20T11:24:08.214912", "MEAN_MOTION": 1.0027177, "ECCENTRICITY": 0.00054302, "INCLINATION": 2.5181, "RA_OF_ASC_NODE": 82.2, "ARG_OF_PERICENTER": 169.9015, "MEAN_ANOMALY": 283.2719, "EPHEMERIS_TYPE": 0, "CLASSIFICATION_TYPE": "U", "NORAD_CAT_ID": 31307, "ELEMENT_SET_NO": 999, "REV_AT_EPOCH": 6801, "BSTAR": 0, "MEAN_MOTION_DOT": -1.85e-06, "MEAN_MOTION_DDOT": 0}, "tle": {"line1": "1 31307U 07016B   25354.47509508 -.00000185  00000+0  00000+0 0  9998", "line2": "2 31307   2.5181  82.2000 0005430 169.9015 283.2719  1.00271770 68010"}}, "geometry": {"type": "Point", "coordinates": [-15.355263427296496, -2.5062220718747086]}}, {"type": "Feature", "properties": {"norad_id": 31862, "name": "DIRECTV 10", "group": "intelsat", "lat": -0.0013666900533076398, "lon": -33.24358745645298, "alt_km": 35786.21474087577, "timestamp": "2025-12-20T22:39:10.313060+00:00", "meta": {"OBJECT_NAME": "DIRECTV 10", "OBJECT_ID": "2007-032A", "EPOCH": "2025-12-20T10:17:47.330592", "MEAN_MOTION": 1.00272197, "ECCENTRICITY": 2.268e-05, "INCLINATION": 0.0081, "RA_OF_ASC_NODE": 103.0199, "ARG_OF_PERICENTER": 118.7646, "MEAN_ANOMALY": 279.1244, "EPHEMERIS_TYPE": 0, "CLASSIFICATION_TYPE": "U", "NORAD_CAT_ID": 31862, "ELEMENT_SET_NO": 999, "REV_AT_EPOCH": 4380, "BSTAR": 0, "MEAN_MOTION_DOT": -7.9e-07, "MEAN_MOTION_DDOT": 0}, "tle": {"line1": "1 31862U 07032A   25354.42902003 -.00000079  00000+0  00000+0 0  9996", "line2": "2 31862   0.0081 103.0199 0000226 118.7646 279.1244  1.00272197 43800"}}, "geometry": {"type": "Point", "coordinates": [-33.24358745645298, -0.0013666900533076398]}}, {"type": "Feature", "properties": {"norad_id": 32253, "name": "INTELSAT 11 (IS-11)", "group": "intelsat", "lat": 0.06586124608264848, "lon": -100.81685086936866, "alt_km": 36095.434579548746, "timestamp": "2025-12-20T22:39:10.313071+00:00", "meta": {"OBJECT_NAME": "INTELSAT 11 (IS-11)", "OBJECT_ID": "2007-044B", "EPOCH": "2025-12-20T08:37:38.768736", "MEAN_MOTION": 0.99052252, "ECCENTRICITY": 0.00085347, "INCLINATION": 3.0988, "RA_OF_ASC_NODE": 80.8927, "ARG_OF_PERICENTER": 168.917, "MEAN_ANOMALY": 160.9677, "EPHEMERIS_TYPE": 0, "CLASSIFICATION_TYPE": "U", "NORAD_CAT_ID": 32253, "ELEMENT_SET_NO": 999, "REV_AT_EPOCH": 6667, "BSTAR": 0, "MEAN_MOTION_DOT": -5.8e-07, "MEAN_MOTION_DDOT": 0}, "tle": {"line1": "1 32253U 07044B   25354.35947649 -.00000058  00000+0  00000+0 0  9998", "line2": "2 32253   3.0988  80.8927 0008534 168.9170 160.9677  0.99052252 66676"}}, "geometry": {"type": "Point", "coordinates": [-100.81685086936866, 0.06586124608264848]}}, {"type": "Feature", "properties": {"norad_id": 32388, "name": "HORIZONS-2", "group": "intelsat", "lat": -2.1420749128762506, "lon": -4.170829226099896, "alt_km": 35782.76587625884, "timestamp": "2025-12-20T22:39:10.313081+00:00", "meta": {"OBJECT_NAME": "HORIZONS-2", "OBJECT_ID": "2007-063B", "EPOCH": "2025-12-20T12:50:36.450240", "MEAN_MOTION": 1.00271677, "ECCENTRICITY": 0.00045883, "INCLINATION": 2.1407, "RA_OF_ASC_NODE": 82.878, "ARG_OF_PERICENTER": 193.8672, "MEAN_ANOMALY": 291.4916, "EPHEMERIS_TYPE": 0, "CLASSIFICATION_TYPE": "U", "NORAD_CAT_ID": 32388, "ELEMENT_SET_NO": 999, "REV_AT_EPOCH": 6602, "BSTAR": 0, "MEAN_MOTION_DOT": -2.32e-06, "MEAN_MOTION_DDOT": 0}, "tle": {"line1": "1 32388U 07063B   25354.53514410 -.00000232  00000+0  00000+0 0  9998", "line2": "2 32388   2.1407  82.8780 0004588 193.8672 291.4916  1.00271677 66021"}}, "geometry": {"type": "Point", "coordinates": [-4.170829226099896, -2.1420749128762506]}}, {"type": "Feature", "properties": {"norad_id": 32729, "name": "DIRECTV 11", "group": "intelsat", "lat": 0.0023582400399537627, "lon": -29.601190383842628, "alt_km": 35783.702499787345, "timestamp": "2025-12-20T22:39:10.313092+00:00", "meta": {"OBJECT_NAME": "DIRECTV 11", "OBJECT_ID": "2008-013A", "EPOCH": "2025-12-20T12:09:57.854304", "MEAN_MOTION": 1.00281934, "ECCENTRICITY": 6.957e-05, "INCLINATION": 0.0453, "RA_OF_ASC_NODE": 198.5655, "ARG_OF_PERICENTER": 32.627, "MEAN_ANOMALY": 301.4589, "EPHEMERIS_TYPE": 0, "CLASSIFICATION_TYPE": "U", "NORAD_CAT_ID": 32729, "ELEMENT_SET_NO": 999, "REV_AT_EPOCH": 4380, "BSTAR": 0, "MEAN_MOTION_DOT": -1.03e-06, "MEAN_MOTION_DDOT": 0}, "tle": {"line1": "1 32729U 08013A   25354.50691961 -.00000103  00000+0  00000+0 0  9994", "line2": "2 32729   0.0453 198.5655 0000695  32.6270 301.4589  1.00281934 43809"}}, "geometry": {"type": "Point", "coordinates": [-29.601190383842628, 0.0023582400399537627]}}, {"type": "Feature", "properties": {"norad_id": 32951, "name": "GALAXY 18 (G-18)", "group": "intelsat", "lat": -0.030018887386231766, "lon": -53.43872610773531, "alt_km": 35776.15037766886, "timestamp": "2025-12-20T22:39:10.313102+00:00", "meta": {"OBJECT_NAME": "GALAXY 18 (G-18)", "OBJECT_ID": "2008-024A", "EPOCH": "2025-12-20T10:15:38.712960", "MEAN_MOTION": 1.00271052, "ECCENTRICITY": 0.00028282, "INCLINATION": 0.0144, "RA_OF_ASC_NODE": 55.5326, "ARG_OF_PERICENTER": 218.577, "MEAN_ANOMALY": 206.0538, "EPHEMERIS_TYPE": 0, "CLASSIFICATION_TYPE": "U", "NORAD_CAT_ID": 32951, "ELEMENT_SET_NO": 999, "REV_AT_EPOCH": 4406, "BSTAR": 0, "MEAN_MOTION_DOT": 4.9e-07, "MEAN_MOTION_DDOT": 0}, "tle": {"line1": "1 32951U 08024A   25354.42753140  .00000049  00000+0  00000+0 0  9990", "line2": "2 32951   0.0144  55.5326 0002828 218.5770 206.0538  1.00271052 44063"}}, "geometry": {"type": "Point", "coordinates": [-53.43872610773531, -0.030018887386231766]}}]}